[{"OBJECT_NAME":"WILDFIRE 5","OBJECT_ID":"2023-133N","EPOCH":"2026-03-09T15:05:21.111648","MEAN_MOTION":13.85448011,"ECCENTRICITY":0.0004913,"INCLINATION":81.0005,"RA_OF_ASC_NODE":103.3656,"ARG_OF_PERICENTER":278.9897,"MEAN_ANOMALY":81.0704,"EPHEMERIS_TYPE":0,"CLASSIFICATION_TYPE":"U","NORAD_CAT_ID":57769,"ELEMENT_SET_NO":999,"REV_AT_EPOCH":12724,"BSTAR":6.7604e-5,"MEAN_MOTION_DOT":8.8e-7,"MEAN_MOTION_DDOT":0},{"OBJECT_NAME":"UNKNOWN","OBJECT_ID":"","EPOCH":"2026-03-06T09:49:41.217312","MEAN_MOTION":13.81884643,"ECCENTRICITY":0.0021691,"INCLINATION":82.925,"RA_OF_ASC_NODE":303.2965,"ARG_OF_PERICENTER":343.1433,"MEAN_ANOMALY":16.9004,"EPHEMERIS_TYPE":0,"CLASSIFICATION_TYPE":"U","NORAD_CAT_ID":81219,"ELEMENT_SET_NO":999,"REV_AT_EPOCH":61907,"BSTAR":0.00060648,"MEAN_MOTION_DOT":6.66e-6,"MEAN_MOTION_DDOT":0}]
